[{"OBJECT_NAME":"TRANSPORTER-13 OBJECT AH","OBJECT_ID":"2025-052AH","EPOCH":"2026-03-09T15:34:17.115744","MEAN_MOTION":15.25468797,"ECCENTRICITY":0.000807,"INCLINATION":97.3962,"RA_OF_ASC_NODE":323.1443,"ARG_OF_PERICENTER":138.7508,"MEAN_ANOMALY":221.4341,"EPHEMERIS_TYPE":0,"CLASSIFICATION_TYPE":"U","NORAD_CAT_ID":63241,"ELEMENT_SET_NO":999,"REV_AT_EPOCH":5475,"BSTAR":0.00055931,"MEAN_MOTION_DOT":0.00014108,"MEAN_MOTION_DDOT":0},{"OBJECT_NAME":"STARLINK-34195","OBJECT_ID":"2025-111V","EPOCH":"2026-03-09T09:54:10.763712","MEAN_MOTION":15.27581495,"ECCENTRICITY":0.00015921,"INCLINATION":43.0043,"RA_OF_ASC_NODE":79.2029,"ARG_OF_PERICENTER":270.138,"MEAN_ANOMALY":89.929,"EPHEMERIS_TYPE":0,"CLASSIFICATION_TYPE":"U","NORAD_CAT_ID":64142,"ELEMENT_SET_NO":999,"REV_AT_EPOCH":4542,"BSTAR":-0.00016439859,"MEAN_MOTION_DOT":-4.784e-5,"MEAN_MOTION_DDOT":0}]
