TRANSPORTER-13 OBJECT AH
1 63241U 25052AH  26068.64880921  .00014108  00000+0  55931-3 0  9999
2 63241  97.3962 323.1443 0008070 138.7508 221.4341 15.25468797 54753
STARLINK-34195          
1 64142U 25111V   26068.41262458 -.00004784  00000+0 -16440-3 0  9993
2 64142  43.0043  79.2029 0001592 270.1380  89.9290 15.27581495 45429
